BEIJING 1               
1 28890U 05043A   24297.57799068  .00001010  00000+0  20770-3 0  9994
2 28890  98.2164  59.6391 0014929   9.3038 350.8438 14.62678495 12668
HUANJING 1A (HJ-1A)     
1 33320U 08041A   24297.51720273  .00003504  00000+0  45712-3 0  9998
2 33320  97.6357 298.2997 0018708 316.1628  43.8100 14.81029490869341
HUANJING 1B (HJ-1B)     
1 33321U 08041B   24297.50637576  .00002826  00000+0  36662-3 0  9991
2 33321  97.6284 302.7694 0037911 359.0745   1.0392 14.81022822869362
YAOGAN-4                
1 33446U 08061A   24297.53040940  .00001455  00000+0  19570-3 0  9993
2 33446  97.8862 227.0670 0013494 224.8939 135.1183 14.80714267856544
DEIMOS-1                
1 35681U 09041A   24297.46860996  .00001637  00000+0  25727-3 0  9991
2 35681  97.6847 112.6036 0001481  29.7135 330.4158 14.73808063818209
UK-DMC 2                
1 35683U 09041C   24297.46793786  .00002580  00000+0  39937-3 0  9991
2 35683  97.8003  80.0306 0001410  86.5777 273.5593 14.74040191817907
DMC3-FM1                
1 40715U 15032A   24297.55184389  .00001783  00000+0  21904-3 0  9992
2 40715  97.7277 172.6002 0004460 221.8317 138.2558 14.84241711500611
DMC3-FM2                
1 40716U 15032B   24297.57410379  .00001833  00000+0  22502-3 0  9997
2 40716  97.7331 173.7774 0006223 230.6418 129.4246 14.84241453500619
DMC3-FM3                
1 40717U 15032C   24297.53922169  .00001808  00000+0  22249-3 0  9999
2 40717  97.7381 175.0799 0007686 228.7422 131.3131 14.84147399500613
